[{"OBJECT_NAME":"STARLINK-31541","OBJECT_ID":"2024-082C","EPOCH":"2026-03-09T05:29:44.502720","MEAN_MOTION":15.2757549,"ECCENTRICITY":0.00010025,"INCLINATION":42.9989,"RA_OF_ASC_NODE":135.2917,"ARG_OF_PERICENTER":183.1958,"MEAN_ANOMALY":176.8888,"EPHEMERIS_TYPE":0,"CLASSIFICATION_TYPE":"U","NORAD_CAT_ID":59633,"ELEMENT_SET_NO":999,"REV_AT_EPOCH":10501,"BSTAR":-1.9670547e-5,"MEAN_MOTION_DOT":-8.03e-6,"MEAN_MOTION_DDOT":0},{"OBJECT_NAME":"FENGYUN 1C DEB","OBJECT_ID":"1999-025EJQ","EPOCH":"2026-03-08T21:27:56.444256","MEAN_MOTION":15.23229897,"ECCENTRICITY":0.00101559,"INCLINATION":98.6645,"RA_OF_ASC_NODE":227.592,"ARG_OF_PERICENTER":263.6857,"MEAN_ANOMALY":96.3219,"EPHEMERIS_TYPE":0,"CLASSIFICATION_TYPE":"U","NORAD_CAT_ID":37470,"ELEMENT_SET_NO":999,"REV_AT_EPOCH":66762,"BSTAR":0.011057202,"MEAN_MOTION_DOT":0.00271626,"MEAN_MOTION_DDOT":0}]
